CANX-5                  
1 40056U 14034D   26068.71056464  .00001421  00000+0  19034-3 0  9999
2 40056  98.3278 300.3368 0012317 336.6034  23.4615 14.81078391620614
KUIPER-00058            
1 64518U 25134U   26068.63835206  .00000426  00000+0  84835-4 0  9997
2 64518  51.9027 225.7628 0000628 103.1746 256.9286 14.79975539 40179
